{
    "links": {
        "self": "http://www.neowsapp.com/rest/v1/neo/3878558?api_key=iIulBulltgU6a56xZRHN4H3l9WmuAYTsLGpBGhQ2"
    },
    "id": "3878558",
    "neo_reference_id": "3878558",
    "name": "(2019 TO1)",
    "designation": "2019 TO1",
    "nasa_jpl_url": "http://ssd.jpl.nasa.gov/sbdb.cgi?sstr=3878558",
    "absolute_magnitude_h": 25.4,
    "estimated_diameter": {
        "kilometers": {
            "estimated_diameter_min": 0.022108281,
            "estimated_diameter_max": 0.0494356193
        },
        "meters": {
            "estimated_diameter_min": 22.1082810359,
            "estimated_diameter_max": 49.435619262
        },
        "miles": {
            "estimated_diameter_min": 0.0137374447,
            "estimated_diameter_max": 0.0307178602
        },
        "feet": {
            "estimated_diameter_min": 72.5337327539,
            "estimated_diameter_max": 162.1903570994
        }
    },
    "is_potentially_hazardous_asteroid": false,
    "close_approach_data": [
        {
            "close_approach_date": "2019-09-16",
            "close_approach_date_full": "2019-Sep-16 03:32",
            "epoch_date_close_approach": 1568604720000,
            "relative_velocity": {
                "kilometers_per_second": "7.2108570351",
                "kilometers_per_hour": "25959.0853265276",
                "miles_per_hour": "16129.9661019193"
            },
            "miss_distance": {
                "astronomical": "0.0319613857",
                "lunar": "12.4329790373",
                "kilometers": "4781355.222968459",
                "miles": "2970996.3686203742"
            },
            "orbiting_body": "Earth"
        },
        {
            "close_approach_date": "2062-06-01",
            "close_approach_date_full": "2062-Jun-01 15:37",
            "epoch_date_close_approach": 2916401820000,
            "relative_velocity": {
                "kilometers_per_second": "6.8604255715",
                "kilometers_per_hour": "24697.5320575138",
                "miles_per_hour": "15346.0859609591"
            },
            "miss_distance": {
                "astronomical": "0.0516557396",
                "lunar": "20.0940827044",
                "kilometers": "7727588.617434652",
                "miles": "4801700.9090441176"
            },
            "orbiting_body": "Mars"
        }
    ],
    "orbital_data": {
        "orbit_id": "3",
        "orbit_determination_date": "2019-10-21 05:58:40",
        "first_observation_date": "2019-10-03",
        "last_observation_date": "2019-10-21",
        "data_arc_in_days": 18,
        "observations_used": 22,
        "orbit_uncertainty": "8",
        "minimum_orbit_intersection": ".023706",
        "jupiter_tisserand_invariant": "4.556",
        "epoch_osculation": "2458766.5",
        "eccentricity": ".3420530249986812",
        "semi_major_axis": "1.461436386781362",
        "inclination": "1.934371229297932",
        "ascending_node_longitude": "53.3130513583887",
        "orbital_period": "645.3098602998678",
        "perihelion_distance": ".9615476498396545",
        "perihelion_argument": "262.0365453023683",
        "aphelion_distance": "1.96132512372307",
        "perihelion_time": "2458711.101030491576",
        "mean_anomaly": "30.90550795824672",
        "mean_motion": ".5578715314108362",
        "equinox": "J2000",
        "orbit_class": {
            "orbit_class_type": "APO",
            "orbit_class_description": "Near-Earth asteroid orbits which cross the Earth’s orbit similar to that of 1862 Apollo",
            "orbit_class_range": "a (semi-major axis) > 1.0 AU; q (perihelion) < 1.017 AU"
        }
    },
    "is_sentry_object": false
}